{
  "type": "FeatureCollection",
  "crs": { "type": "name", "properties": { "name": "urn:ogc:def:crs:OGC:1.3:CRS84" } },
  "features": [
    {
      "type": "Feature",
      "geometry": { "type": "Point", "coordinates": [56.12, 23.58] },
      "properties": {
        "name": "Interior hamada A",
        "region": "Arabian Peninsula",
        "comuna": "Ad Dhahirah",
        "country": "OMN",
        "landUse": "desert plateau",
        "status": "candidato"
      }
    },
    {
      "type": "Feature",
      "geometry": { "type": "Point", "coordinates": [56.21, 23.61] },
      "properties": {
        "name": "Interior hamada B",
        "region": "Arabian Peninsula",
        "comuna": "Ad Dhahirah",
        "country": "OMN",
        "landUse": "desert plateau",
        "status": "preseleccionado"
      }
    },
    {
      "type": "Feature",
      "geometry": { "type": "Point", "coordinates": [56.08, 23.52] },
      "properties": {
        "name": "Wadi fringe C",
        "region": "Arabian Peninsula",
        "comuna": "Ad Dhahirah",
        "country": "OMN",
        "landUse": "wadi edge",
        "status": "candidato"
      }
    },
    {
      "type": "Feature",
      "geometry": {
        "type": "Polygon",
        "coordinates": [[[56.07, 23.50], [56.11, 23.50], [56.11, 23.54], [56.07, 23.54], [56.07, 23.50]]]
      },
      "properties": {
        "name": "User-declared wadi buffer",
        "kind": "restriction",
        "type": "ambiental",
        "severity": "alerta",
        "source": "Project GIS sketch (not an official zoning layer)",
        "date": "2026-09-04"
      }
    },
    {
      "type": "Feature",
      "geometry": {
        "type": "LineString",
        "coordinates": [[56.30, 23.55], [56.22, 23.58], [56.14, 23.60]]
      },
      "properties": {
        "name": "Conceptual 33 kV feeder sketch",
        "role": "feeder"
      }
    }
  ]
}
